INTELSAT 906 (IS-906)   
1 27513U 02041A   26167.94001175  .00000006  00000+0  00000+0 0  9998
2 27513   5.8020  72.9256 0004604   6.9688 227.8581  1.00272911 87020
NIMIQ 2                 
1 27632U 02062A   26167.62280402 -.00000077  00000+0  00000+0 0  9999
2 27632   9.4454  56.9059 0005425  23.1758 299.8220  1.00271783 44171
USA 167                 
1 27691U 03008A   26167.61849674 -.00000006  00000+0  00000+0 0  9998
2 27691  10.9607  43.4151 0003910 311.9247  10.5027  1.00272449  6761
USA 169 (MILSTAR-2 4)   
1 27711U 03012A   26167.52195308 -.00000258  00000+0  00000+0 0  9993
2 27711  12.3487  29.8487 0100599   9.1277 205.8562  1.00273029 32943
ASIASAT 4               
1 27718U 03014A   26167.62624940 -.00000227  00000+0  00000+0 0  9998
2 27718   4.7028  75.7549 0002991  14.3151 187.8112  1.00270395 45296
HELLAS-SAT 2            
1 27811U 03020A   26167.96800615 -.00000092  00000+0  00000+0 0  9991
2 27811   7.3548  67.8870 0002434  24.2372 151.5643  1.00271119 42842
THURAYA-2               
1 27825U 03026A   26167.76484329  .00000117  00000+0  00000+0 0  9997
2 27825   8.8398  31.9790 0002983  12.3270 180.0792  1.00273995 84340
OPTUS C1                
1 27831U 03028B   26167.59707706 -.00000158  00000+0  00000+0 0  9990
2 27831   6.8887  69.4171 0005462  12.5515 193.5879  1.00272308 53052
USA 170                 
1 27875U 03040A   26166.85739491  .00000119  00000+0  00000+0 0  9992
2 27875  10.4979  47.9622 0001565  61.9528 127.1615  1.00268469 32980
GALAXY 13 (HORIZONS-1)  
1 27954U 03044A   26167.72647690  .00000129  00000+0  00000+0 0  9991
2 27954   1.4181  83.8716 0002256 352.8476 299.7915  1.00270809 46567
YAMAL 202               
1 28089U 03053A   26167.58821823 -.00000086  00000+0  00000+0 0  9990
2 28089   6.3413  70.9445 0003295   1.2970 207.9466  1.00271200 82695
UFO 11 (USA 174)        
1 28117U 03057A   26167.62860154 -.00000113  00000+0  00000+0 0  9992
2 28117   8.9361  33.8310 0002578  60.7194 112.2656  1.00274257 82444
USA 176 (DSP 22)        
1 28158U 04004A   26162.97340249 -.00000286  00000+0  00000+0 0  9992
2 28158  12.0550  26.1076 0001239 290.9902 243.8917  1.00406369 32881
ABS-4 (MOBISAT-1)       
1 28184U 04007A   26167.91545509  .00000032  00000+0  00000+0 0  9997
2 28184   6.0409  72.0115 0005170  12.0114 211.6938  1.00273509 52332
INTELSAT 10-02          
1 28358U 04022A   26167.66137044 -.00000013  00000+0  00000+0 0  9990
2 28358   0.0133 313.0240 0000200 252.2268 296.7595  1.00271868 80551
ANIK F2                 
1 28378U 04027A   26167.62249858 -.00000054  00000+0  00000+0 0  9995
2 28378   3.2861  79.4557 0004022   8.1676 290.2360  1.00271514 41258
AMC-15                  
1 28446U 04041A   26167.94925976 -.00000092  00000+0  00000+0 0  9996
2 28446   0.0169 335.0456 0002137 123.0540  43.8052  1.00271348 79303
NSS-10                  
1 28526U 05003A   26167.42117547 -.00000257  00000+0  00000+0 0  9997
2 28526   6.4481  70.4629 0002623   8.9791 299.4160  1.00270013 53141
INMARSAT 4-F1           
1 28628U 05009A   26167.79148134  .00000027  00000+0  00000+0 0  9996
2 28628   5.1673  42.7606 0002476  43.2986 282.0427  1.00270052 77664
DIRECTV 8               
1 28659U 05019A   26168.18064308  .00000000  00000+0  00000+0 0  9996
2 28659   0.0204   1.6232 0002873  91.7781 118.0221  1.00271003 77075
GALAXY 28 (G-28)        
1 28702U 05022A   26167.75083035 -.00000205  00000+0  00000+0 0  9997
2 28702   3.2974  78.9402 0002873   5.2261  64.0630  1.00271160 51971
THAICOM 4               
1 28786U 05028A   26167.76783300 -.00000365  00000+0  00000+0 0  9995
2 28786   0.2451  85.8652 0001625 345.9222 229.1692  1.00271847 52244
ANIK F1R                
1 28868U 05036A   26167.62387051 -.00000080  00000+0  00000+0 0  9997
2 28868   4.3118  76.5863 0004019   1.2767 304.3321  1.00270682 46443
SYRACUSE 3A             
1 28885U 05041B   26167.76544994  .00000123  00000+0  00000+0 0  9995
2 28885   4.6415  75.8441 0002934 351.3397 160.0905  1.00274945 75747
INMARSAT 4-F2           
1 28899U 05044A   26167.57065603 -.00000266  00000+0  00000+0 0  9996
2 28899   5.0944  43.7017 0002784  34.7252 175.3347  1.00270373 75517
METEOSAT-9 (MSG-2)      
1 28912U 05049B   26167.76518994  .00000116  00000+0  00000+0 0  9997
2 28912   9.3608  54.1728 0001615 343.7501 188.2137  1.00271877  6990
EUTELSAT 174A           
1 28924U 05052A   26167.60947520  .00000004  00000+0  00000+0 0  9994
2 28924   4.2186  76.5344 0006139   8.2474 213.4585  1.00271080 52320
ECHOSTAR 10             
1 28935U 06003A   26167.66304256 -.00000057  00000+0  00000+0 0  9991
2 28935   0.0185 337.7266 0001310  87.0801 328.6162  1.00269432 74451
SPAINSAT                
1 28945U 06007A   26167.34891205 -.00000218  00000+0  00000+0 0  9995
2 28945   0.5616  86.5341 0004636 357.6666 275.8457  1.00269896 74216
JCSAT-5A                
1 29045U 06010A   26167.78229464 -.00000332  00000+0  00000+0 0  9998
2 29045   1.1090  84.2242 0001304 335.2705 259.2145  1.00264878 73765
ASTRA 1KR               
1 29055U 06012A   26167.68860933  .00000116  00000+0  00000+0 0  9991
2 29055   0.4731  83.1969 0003266 357.3534  91.2731  1.00271188 45696
GALAXY 16 (G-16)        
1 29236U 06023A   26167.66520924 -.00000130  00000+0  00000+0 0  9992
2 29236   0.0174 170.0059 0002459 278.8437 316.5554  1.00276198 72964
