OBJECT_NAME,OBJECT_ID,EPOCH,MEAN_MOTION,ECCENTRICITY,INCLINATION,RA_OF_ASC_NODE,ARG_OF_PERICENTER,MEAN_ANOMALY,EPHEMERIS_TYPE,CLASSIFICATION_TYPE,NORAD_CAT_ID,ELEMENT_SET_NO,REV_AT_EPOCH,BSTAR,MEAN_MOTION_DOT,MEAN_MOTION_DDOT
INTELSAT 906 (IS-906),2002-041A,2026-06-16T22:33:37.015200,1.00272911,.0004604,5.8020,72.9256,6.9688,227.8581,0,U,27513,999,8702,0,.6E-7,0
NIMIQ 2,2002-062A,2026-06-16T14:56:50.267328,1.00271783,.0005425,9.4454,56.9059,23.1758,299.8220,0,U,27632,999,4417,0,-.77E-6,0
USA 167,2003-008A,2026-06-16T14:50:38.118336,1.00272449,.000391,10.9607,43.4151,311.9247,10.5027,0,U,27691,999,676,0,-.6E-7,0
USA 169 (MILSTAR-2 4),2003-012A,2026-06-16T12:31:36.746112,1.00273029,.0100599,12.3487,29.8487,9.1277,205.8562,0,U,27711,999,3294,0,-.258E-5,0
ASIASAT 4,2003-014A,2026-06-16T15:01:47.948160,1.00270395,.0002991,4.7028,75.7549,14.3151,187.8112,0,U,27718,999,4529,0,-.227E-5,0
HELLAS-SAT 2,2003-020A,2026-06-16T23:13:55.731360,1.00271119,.0002434,7.3548,67.8870,24.2372,151.5643,0,U,27811,999,4284,0,-.92E-6,0
THURAYA-2,2003-026A,2026-06-16T18:21:22.460256,1.00273995,.0002983,8.8398,31.9790,12.3270,180.0792,0,U,27825,999,8434,0,.117E-5,0
OPTUS C1,2003-028B,2026-06-16T14:19:47.457984,1.00272308,.0005462,6.8887,69.4171,12.5515,193.5879,0,U,27831,999,5305,0,-.158E-5,0
USA 170,2003-040A,2026-06-15T20:34:38.920224,1.00268469,.00015651,10.4979,47.9622,61.9528,127.1615,0,U,27875,999,3298,0,.119E-5,0
GALAXY 13 (HORIZONS-1),2003-044A,2026-06-16T17:26:07.604160,1.00270809,.0002256,1.4181,83.8716,352.8476,299.7915,0,U,27954,999,4656,0,.129E-5,0
YAMAL 202,2003-053A,2026-06-16T14:07:02.055072,1.00271200,.0003295,6.3413,70.9445,1.2970,207.9466,0,U,28089,999,8269,0,-.86E-6,0
UFO 11 (USA 174),2003-057A,2026-06-16T15:05:11.173056,1.00274257,.0002578,8.9361,33.8310,60.7194,112.2656,0,U,28117,999,8244,0,-.113E-5,0
USA 176 (DSP 22),2004-004A,2026-06-11T23:21:41.975136,1.00406369,.0001239,12.0550,26.1076,290.9902,243.8917,0,U,28158,999,3288,0,-.286E-5,0
ABS-4 (MOBISAT-1),2004-007A,2026-06-16T21:58:15.319776,1.00273509,.000517,6.0409,72.0115,12.0114,211.6938,0,U,28184,999,5233,0,.32E-6,0
INTELSAT 10-02,2004-022A,2026-06-16T15:52:22.406016,1.00271868,.00002,0.0133,313.0240,252.2268,296.7595,0,U,28358,999,8055,0,-.13E-6,0
ANIK F2,2004-027A,2026-06-16T14:56:23.877312,1.00271514,.0004022,3.2861,79.4557,8.1676,290.2360,0,U,28378,999,4125,0,-.54E-6,0
AMC-15,2004-041A,2026-06-16T22:46:56.043264,1.00271348,.0002137,0.0169,335.0456,123.0540,43.8052,0,U,28446,999,7930,0,-.92E-6,0
NSS-10,2005-003A,2026-06-16T10:06:29.560608,1.00270013,.00026235,6.4481,70.4629,8.9791,299.4160,0,U,28526,999,5314,0,-.257E-5,0
INMARSAT 4-F1,2005-009A,2026-06-16T18:59:43.987776,1.00270052,.0002476,5.1673,42.7606,43.2986,282.0427,0,U,28628,999,7766,0,.27E-6,0
DIRECTV 8,2005-019A,2026-06-17T04:20:07.562112,1.00271003,.0002873,0.0204,1.6232,91.7781,118.0221,0,U,28659,999,7707,0,0,0
GALAXY 28 (G-28),2005-022A,2026-06-16T18:01:11.742240,1.00271160,.0002873,3.2974,78.9402,5.2261,64.0630,0,U,28702,999,5197,0,-.205E-5,0
THAICOM 4,2005-028A,2026-06-16T18:25:40.771200,1.00271847,.0001625,0.2451,85.8652,345.9222,229.1692,0,U,28786,999,5224,0,-.365E-5,0
ANIK F1R,2005-036A,2026-06-16T14:58:22.412064,1.00270682,.0004019,4.3118,76.5863,1.2767,304.3321,0,U,28868,999,4644,0,-.8E-6,0
SYRACUSE 3A,2005-041B,2026-06-16T18:22:14.874816,1.00274945,.0002934,4.6415,75.8441,351.3397,160.0905,0,U,28885,999,7574,0,.123E-5,0
INMARSAT 4-F2,2005-044A,2026-06-16T13:41:44.680992,1.00270373,.0002784,5.0944,43.7017,34.7252,175.3347,0,U,28899,999,7551,0,-.266E-5,0
METEOSAT-9 (MSG-2),2005-049B,2026-06-16T18:21:52.410816,1.00271877,.0001615,9.3608,54.1728,343.7501,188.2137,0,U,28912,999,699,0,.116E-5,0
EUTELSAT 174A,2005-052A,2026-06-16T14:37:38.657280,1.00271080,.0006139,4.2186,76.5344,8.2474,213.4585,0,U,28924,999,5232,0,.4E-7,0
ECHOSTAR 10,2006-003A,2026-06-16T15:54:46.877184,1.00269432,.000131,0.0185,337.7266,87.0801,328.6162,0,U,28935,999,7445,0,-.57E-6,0
SPAINSAT,2006-007A,2026-06-16T08:22:26.001120,1.00269896,.0004636,0.5616,86.5341,357.6666,275.8457,0,U,28945,999,7421,0,-.218E-5,0
JCSAT-5A,2006-010A,2026-06-16T18:46:30.256896,1.00264878,.0001304,1.1090,84.2242,335.2705,259.2145,0,U,29045,999,7376,0,-.332E-5,0
ASTRA 1KR,2006-012A,2026-06-16T16:31:35.846112,1.00271188,.0003266,0.4731,83.1969,357.3534,91.2731,0,U,29055,999,4569,0,.116E-5,0
GALAXY 16 (G-16),2006-023A,2026-06-16T15:57:54.078336,1.00276198,.0002459,0.0174,170.0059,278.8437,316.5554,0,U,29236,999,7296,0,-.13E-5,0
